{"fetched_at":"2026-07-21T07:06:33.367Z","source":"https://celestrak.org/NORAD/elements/gp.php?GROUP=spire&FORMAT=JSON","constellation":"spire","records":[{"OBJECT_NAME":"LEMUR-2-VALHALLA","OBJECT_ID":"2024-022B","EPOCH":"2026-07-20T20:37:39.320832","CLASSIFICATION_TYPE":"U","MEAN_MOTION":15.40595623,"ECCENTRICITY":0.00086185,"INCLINATION":97.4081,"RA_OF_ASC_NODE":52.274,"ARG_OF_PERICENTER":4.3557,"MEAN_ANOMALY":355.7763,"EPHEMERIS_TYPE":0,"NORAD_CAT_ID":58900,"ELEMENT_SET_NO":999,"REV_AT_EPOCH":13745,"BSTAR":0.00028369677,"MEAN_MOTION_DOT":0.00011474,"MEAN_MOTION_DDOT":0},{"OBJECT_NAME":"LEMUR-2-CAEL","OBJECT_ID":"2024-022E","EPOCH":"2026-07-20T20:09:40.338144","CLASSIFICATION_TYPE":"U","MEAN_MOTION":15.41973973,"ECCENTRICITY":0.00065548,"INCLINATION":97.4058,"RA_OF_ASC_NODE":53.2514,"ARG_OF_PERICENTER":347.9089,"MEAN_ANOMALY":12.2,"EPHEMERIS_TYPE":0,"NORAD_CAT_ID":58903,"ELEMENT_SET_NO":999,"REV_AT_EPOCH":13752,"BSTAR":0.0002988628,"MEAN_MOTION_DOT":0.00012655,"MEAN_MOTION_DDOT":0},{"OBJECT_NAME":"LEMUR-2-JOHNNYTRUONG","OBJECT_ID":"2024-043BA","EPOCH":"2026-07-20T22:00:17.623296","CLASSIFICATION_TYPE":"U","MEAN_MOTION":15.62877464,"ECCENTRICITY":0.00037327,"INCLINATION":97.54,"RA_OF_ASC_NODE":355.7788,"ARG_OF_PERICENTER":76.6375,"MEAN_ANOMALY":283.5299,"EPHEMERIS_TYPE":0,"NORAD_CAT_ID":59146,"ELEMENT_SET_NO":999,"REV_AT_EPOCH":13330,"BSTAR":0.00037114399,"MEAN_MOTION_DOT":0.00033456,"MEAN_MOTION_DDOT":0},{"OBJECT_NAME":"LEMUR-2-TOMATOKECHUP","OBJECT_ID":"2024-149D","EPOCH":"2026-07-20T18:43:09.102144","CLASSIFICATION_TYPE":"U","MEAN_MOTION":15.36651781,"ECCENTRICITY":0.00034318,"INCLINATION":97.3785,"RA_OF_ASC_NODE":283.9261,"ARG_OF_PERICENTER":111.51,"MEAN_ANOMALY":248.651,"EPHEMERIS_TYPE":0,"NORAD_CAT_ID":60471,"ELEMENT_SET_NO":999,"REV_AT_EPOCH":10732,"BSTAR":0.00018950882,"MEAN_MOTION_DOT":0.00006701,"MEAN_MOTION_DDOT":0},{"OBJECT_NAME":"LEMUR-2-STELLA","OBJECT_ID":"2024-149BT","EPOCH":"2026-07-20T18:19:38.737056","CLASSIFICATION_TYPE":"U","MEAN_MOTION":15.12439052,"ECCENTRICITY":0.00013831,"INCLINATION":97.6727,"RA_OF_ASC_NODE":284.3799,"ARG_OF_PERICENTER":122.2813,"MEAN_ANOMALY":237.8552,"EPHEMERIS_TYPE":0,"NORAD_CAT_ID":60533,"ELEMENT_SET_NO":999,"REV_AT_EPOCH":10557,"BSTAR":0.00038265669,"MEAN_MOTION_DOT":0.00006585,"MEAN_MOTION_DDOT":0},{"OBJECT_NAME":"LEMUR-2-MARHISYAM","OBJECT_ID":"2024-149BW","EPOCH":"2026-07-20T22:55:38.231904","CLASSIFICATION_TYPE":"U","MEAN_MOTION":15.11842816,"ECCENTRICITY":0.00022068,"INCLINATION":97.687,"RA_OF_ASC_NODE":285.0551,"ARG_OF_PERICENTER":61.231,"MEAN_ANOMALY":298.9141,"EPHEMERIS_TYPE":0,"NORAD_CAT_ID":60536,"ELEMENT_SET_NO":999,"REV_AT_EPOCH":10558,"BSTAR":0.00038840634,"MEAN_MOTION_DOT":0.00006575,"MEAN_MOTION_DDOT":0},{"OBJECT_NAME":"LEMUR-2-AHMED-ASRAR","OBJECT_ID":"2024-149DN","EPOCH":"2026-07-20T21:21:23.823648","CLASSIFICATION_TYPE":"U","MEAN_MOTION":15.13381666,"ECCENTRICITY":0.00017213,"INCLINATION":97.6996,"RA_OF_ASC_NODE":287.215,"ARG_OF_PERICENTER":181.6001,"MEAN_ANOMALY":178.5224,"EPHEMERIS_TYPE":0,"NORAD_CAT_ID":60576,"ELEMENT_SET_NO":999,"REV_AT_EPOCH":10566,"BSTAR":0.00043557954,"MEAN_MOTION_DOT":0.00007707,"MEAN_MOTION_DDOT":0},{"OBJECT_NAME":"LEMUR-2-LLOYD","OBJECT_ID":"2024-149DP","EPOCH":"2026-07-20T20:21:42.729408","CLASSIFICATION_TYPE":"U","MEAN_MOTION":15.09809945,"ECCENTRICITY":0.00042185,"INCLINATION":97.673,"RA_OF_ASC_NODE":283.0077,"ARG_OF_PERICENTER":56.5433,"MEAN_ANOMALY":303.6198,"EPHEMERIS_TYPE":0,"NORAD_CAT_ID":60577,"ELEMENT_SET_NO":999,"REV_AT_EPOCH":10547,"BSTAR":0.00044839688,"MEAN_MOTION_DOT":0.00007186,"MEAN_MOTION_DDOT":0},{"OBJECT_NAME":"LEMUR-2-SQUIRRELCOMM","OBJECT_ID":"2024-149DQ","EPOCH":"2026-07-20T18:42:13.848480","CLASSIFICATION_TYPE":"U","MEAN_MOTION":15.07479136,"ECCENTRICITY":0.00040065,"INCLINATION":97.6699,"RA_OF_ASC_NODE":282.5908,"ARG_OF_PERICENTER":299.4293,"MEAN_ANOMALY":60.6535,"EPHEMERIS_TYPE":0,"NORAD_CAT_ID":60578,"ELEMENT_SET_NO":999,"REV_AT_EPOCH":10546,"BSTAR":0.00025844973,"MEAN_MOTION_DOT":0.00003857,"MEAN_MOTION_DDOT":0},{"OBJECT_NAME":"LEMUR-2-SIERRINI","OBJECT_ID":"2024-149DR","EPOCH":"2026-07-20T20:28:01.983072","CLASSIFICATION_TYPE":"U","MEAN_MOTION":15.11580407,"ECCENTRICITY":0.00060385,"INCLINATION":97.6829,"RA_OF_ASC_NODE":284.6077,"ARG_OF_PERICENTER":75.977,"MEAN_ANOMALY":284.2131,"EPHEMERIS_TYPE":0,"NORAD_CAT_ID":60579,"ELEMENT_SET_NO":999,"REV_AT_EPOCH":10554,"BSTAR":0.00047345788,"MEAN_MOTION_DOT":0.00007975,"MEAN_MOTION_DDOT":0},{"OBJECT_NAME":"LEMUR-2-WILSON","OBJECT_ID":"2025-009CP","EPOCH":"2026-07-20T18:08:45.858048","CLASSIFICATION_TYPE":"U","MEAN_MOTION":14.95288693,"ECCENTRICITY":0.0001611,"INCLINATION":97.7016,"RA_OF_ASC_NODE":279.6322,"ARG_OF_PERICENTER":291.2101,"MEAN_ANOMALY":68.8947,"EPHEMERIS_TYPE":0,"NORAD_CAT_ID":62694,"ELEMENT_SET_NO":999,"REV_AT_EPOCH":8237,"BSTAR":0.0001296268,"MEAN_MOTION_DOT":0.00001371,"MEAN_MOTION_DDOT":0},{"OBJECT_NAME":"LEMUR-2-STAR-FOX","OBJECT_ID":"2025-009CR","EPOCH":"2026-07-20T18:52:13.657152","CLASSIFICATION_TYPE":"U","MEAN_MOTION":15.02884188,"ECCENTRICITY":0.00016101,"INCLINATION":97.6899,"RA_OF_ASC_NODE":283.1533,"ARG_OF_PERICENTER":20.1847,"MEAN_ANOMALY":339.9442,"EPHEMERIS_TYPE":0,"NORAD_CAT_ID":62696,"ELEMENT_SET_NO":999,"REV_AT_EPOCH":8260,"BSTAR":0.00034884253,"MEAN_MOTION_DOT":0.00004619,"MEAN_MOTION_DDOT":0},{"OBJECT_NAME":"LEMUR-2-ARIANNA","OBJECT_ID":"2025-009CU","EPOCH":"2026-07-20T17:14:07.775520","CLASSIFICATION_TYPE":"U","MEAN_MOTION":15.02887787,"ECCENTRICITY":0.00019092,"INCLINATION":97.684,"RA_OF_ASC_NODE":282.8336,"ARG_OF_PERICENTER":29.6722,"MEAN_ANOMALY":330.4611,"EPHEMERIS_TYPE":0,"NORAD_CAT_ID":62699,"ELEMENT_SET_NO":999,"REV_AT_EPOCH":8259,"BSTAR":0.00036687247,"MEAN_MOTION_DOT":0.00004862,"MEAN_MOTION_DDOT":0},{"OBJECT_NAME":"LEMUR-2-ALISIA","OBJECT_ID":"2025-009DB","EPOCH":"2026-07-20T22:55:59.623680","CLASSIFICATION_TYPE":"U","MEAN_MOTION":15.03225167,"ECCENTRICITY":0.00049153,"INCLINATION":97.6959,"RA_OF_ASC_NODE":283.9056,"ARG_OF_PERICENTER":113.8505,"MEAN_ANOMALY":246.3236,"EPHEMERIS_TYPE":0,"NORAD_CAT_ID":62706,"ELEMENT_SET_NO":999,"REV_AT_EPOCH":10523,"BSTAR":0.00039543959,"MEAN_MOTION_DOT":0.00005293,"MEAN_MOTION_DDOT":0},{"OBJECT_NAME":"LEMUR-2-ROUNDTRIPPER","OBJECT_ID":"2025-009DG","EPOCH":"2026-07-20T18:10:16.157280","CLASSIFICATION_TYPE":"U","MEAN_MOTION":15.04280173,"ECCENTRICITY":0.00044342,"INCLINATION":97.724,"RA_OF_ASC_NODE":284.3978,"ARG_OF_PERICENTER":53.779,"MEAN_ANOMALY":306.3845,"EPHEMERIS_TYPE":0,"NORAD_CAT_ID":62711,"ELEMENT_SET_NO":999,"REV_AT_EPOCH":8267,"BSTAR":0.00032850469,"MEAN_MOTION_DOT":0.00004512,"MEAN_MOTION_DDOT":0},{"OBJECT_NAME":"LEMUR-2-MYNAMEISJEFF","OBJECT_ID":"2025-009DH","EPOCH":"2026-07-20T22:55:30.004896","CLASSIFICATION_TYPE":"U","MEAN_MOTION":15.04275983,"ECCENTRICITY":0.00043326,"INCLINATION":97.7287,"RA_OF_ASC_NODE":284.9972,"ARG_OF_PERICENTER":86.1884,"MEAN_ANOMALY":273.9837,"EPHEMERIS_TYPE":0,"NORAD_CAT_ID":62712,"ELEMENT_SET_NO":999,"REV_AT_EPOCH":8270,"BSTAR":0.0004072,"MEAN_MOTION_DOT":0.00005608,"MEAN_MOTION_DDOT":0}]}
